1 35836U 93036ATJ 18166.59023078  .00000632  00000-0  20290-3 0  9999
2 35836  74.0424 251.3768 0046175 272.2880  87.2989 14.40860148479528
1 35836U 93036ATJ 18166.59023078 +.00000632 +00000-0 +20290-3 0  9999
2 35836 074.0424 251.3768 0046175 272.2880 087.2989 14.40860148239151
1 35836U 93036ATJ 18167.56226443 +.00000651 +00000-0 +20891-3 0  9996
2 35836 074.0424 249.5790 0046224 270.2656 089.3202 14.40861662239297
1 35836U 93036ATJ 18167.90941919 +.00000640 +00000-0 +20561-3 0  9998
2 35836 074.0423 248.9369 0046244 269.5529 090.0328 14.40862095239348
1 35836U 93036ATJ 18169.57575997  .00000691  00000-0  22128-3 0  9999
2 35836  74.0422 245.8549 0046346 266.1096  93.4760 14.40864881479953
1 35836U 93036ATJ 18169.57575997 +.00000691 +00000-0 +22128-3 0  9999
2 35836 074.0422 245.8549 0046346 266.1096 093.4760 14.40864881239586
1 35836U 93036ATJ 18170.61722174 +.00000681 +00000-0 +21818-3 0  9991
2 35836 074.0421 243.9284 0046394 263.9580 095.6288 14.40866428239731
1 35836U 93036ATJ 18171.51981968 +.00000738 +00000-0 +23558-3 0  9995
2 35836 074.0420 242.2591 0046440 262.0999 097.4884 14.40868535239866
1 35836U 93036ATJ 18171.86697279  .00000736  00000-0  23483-3 0  9997
2 35836  74.0420 241.6170 0046437 261.3835  98.2058 14.40869159480288
1 35836U 93036ATJ 18172.83900144 +.00000696 +00000-0 +22274-3 0  9995
2 35836 074.0419 239.8192 0046475 259.3873 100.2046 14.40870482240051
1 35836U 93036ATJ 18173.81102923 +.00000688 +00000-0 +22026-3 0  9999
2 35836 074.0417 238.0210 0046509 257.3785 102.2168 14.40871937240197
1 35836U 93036ATJ 18174.50533421  .00000696  00000-0  22273-3 0  9990
2 35836  74.0417 236.7369 0046539 255.9497 103.6483 14.40873037480660
1 35836U 93036ATJ 18174.85248632 +.00000725 +00000-0 +23157-3 0  9990
2 35836 074.0417 236.0947 0046550 255.2377 104.3617 14.40873791240341
1 35836U 93036ATJ 18176.51881550  .00000780  00000-0  24845-3 0  9993
2 35836  74.0415 233.0126 0046621 251.7993 107.8084 14.40876658480953
1 35836U 93036ATJ 18177.56026942 +.00000858 +00000-0 +27258-3 0  9992
2 35836 074.0414 231.0860 0046645 249.6744 109.9396 14.40878864240731
1 35836U 93036ATJ 18180.54576520  .00000741  00000-0  23636-3 0  9993
2 35836  74.0413 225.5637 0046722 243.5826 116.0531 14.40883299481533
